[{"OBJECT_NAME":"STARLINK-3087","OBJECT_ID":"2021-082AX","EPOCH":"2026-03-09T22:34:00.117696","MEAN_MOTION":14.97523271,"ECCENTRICITY":0.00025129,"INCLINATION":69.9986,"RA_OF_ASC_NODE":274.7447,"ARG_OF_PERICENTER":266.9197,"MEAN_ANOMALY":93.1674,"EPHEMERIS_TYPE":0,"CLASSIFICATION_TYPE":"U","NORAD_CAT_ID":49175,"ELEMENT_SET_NO":999,"REV_AT_EPOCH":24648,"BSTAR":2.6790448e-5,"MEAN_MOTION_DOT":2.21e-6,"MEAN_MOTION_DDOT":0},{"OBJECT_NAME":"TORO","OBJECT_ID":"2024-149BQ","EPOCH":"2026-03-09T19:04:49.617408","MEAN_MOTION":14.96013579,"ECCENTRICITY":0.00010195,"INCLINATION":97.6844,"RA_OF_ASC_NODE":145.3205,"ARG_OF_PERICENTER":86.2634,"MEAN_ANOMALY":273.8704,"EPHEMERIS_TYPE":0,"CLASSIFICATION_TYPE":"U","NORAD_CAT_ID":60530,"ELEMENT_SET_NO":999,"REV_AT_EPOCH":8509,"BSTAR":0.00024799107,"MEAN_MOTION_DOT":2.725e-5,"MEAN_MOTION_DDOT":0}]
